[{"OBJECT_NAME":"STARLINK-4292","OBJECT_ID":"2022-083AV","EPOCH":"2026-03-09T13:21:56.750976","MEAN_MOTION":15.08846761,"ECCENTRICITY":0.0001279,"INCLINATION":53.2166,"RA_OF_ASC_NODE":174.7173,"ARG_OF_PERICENTER":84.8248,"MEAN_ANOMALY":275.289,"EPHEMERIS_TYPE":0,"CLASSIFICATION_TYPE":"U","NORAD_CAT_ID":53175,"ELEMENT_SET_NO":999,"REV_AT_EPOCH":20119,"BSTAR":-0.00013269,"MEAN_MOTION_DOT":-2.399e-5,"MEAN_MOTION_DDOT":0},{"OBJECT_NAME":"CZ-4B DEB","OBJECT_ID":"2008-053M","EPOCH":"2026-03-05T07:18:48.921696","MEAN_MOTION":15.08195439,"ECCENTRICITY":0.0017401,"INCLINATION":97.8281,"RA_OF_ASC_NODE":90.6528,"ARG_OF_PERICENTER":258.7901,"MEAN_ANOMALY":101.1371,"EPHEMERIS_TYPE":0,"CLASSIFICATION_TYPE":"U","NORAD_CAT_ID":44593,"ELEMENT_SET_NO":999,"REV_AT_EPOCH":67199,"BSTAR":0.00019653,"MEAN_MOTION_DOT":2.982e-5,"MEAN_MOTION_DDOT":0}]
